[{"OBJECT_NAME":"STARLINK-30327","OBJECT_ID":"2023-129K","EPOCH":"2026-03-09T12:25:28.993152","MEAN_MOTION":15.26626807,"ECCENTRICITY":0.00230309,"INCLINATION":42.9974,"RA_OF_ASC_NODE":85.9834,"ARG_OF_PERICENTER":70.832,"MEAN_ANOMALY":289.5022,"EPHEMERIS_TYPE":0,"CLASSIFICATION_TYPE":"U","NORAD_CAT_ID":57707,"ELEMENT_SET_NO":999,"REV_AT_EPOCH":14090,"BSTAR":0.00029313824,"MEAN_MOTION_DOT":7.635e-5,"MEAN_MOTION_DDOT":0},{"OBJECT_NAME":"STARLINK-34204","OBJECT_ID":"2025-244H","EPOCH":"2026-03-09T21:09:45.993312","MEAN_MOTION":15.3017075,"ECCENTRICITY":8.612e-5,"INCLINATION":53.1576,"RA_OF_ASC_NODE":228.6865,"ARG_OF_PERICENTER":108.7651,"MEAN_ANOMALY":251.3444,"EPHEMERIS_TYPE":0,"CLASSIFICATION_TYPE":"U","NORAD_CAT_ID":66213,"ELEMENT_SET_NO":999,"REV_AT_EPOCH":2169,"BSTAR":0.0012331494,"MEAN_MOTION_DOT":0.00036309,"MEAN_MOTION_DDOT":0}]
